NORAD_CAT_ID,OBJECT_NAME,OBJECT_TYPE,EPOCH,MEAN_MOTION,ECCENTRICITY,INCLINATION,RA_OF_ASC_NODE,ARG_OF_PERICENTER,MEAN_ANOMALY,BSTAR,MEAN_MOTION_DOT,MEAN_MOTION_DDOT,TLE_LINE0,TLE_LINE1,TLE_LINE2,SEMIMAJOR_AXIS,PERIOD,APOGEE,PERIGEE,DECAYED
55668.0,STARLINK-5455,PAYLOAD,2023-06-25 08:21:36,15.6992603,0.0003045,69.9993,151.2377,267.114,92.9707,4.476e-06,3.26e-06,0.0,0 STARLINK-5455,1 55668U 23021AS  23176.34833661  .00000326  00000-0  44760-5 0  9998,2 55668  69.9993 151.2377 0003045 267.1140  92.9707 15.69926030 20564,6737.246,91.724,361.162,357.059,0.0
55668.0,STARLINK-5455,PAYLOAD,2023-06-26 01:10:52,15.69919566,0.0003572,69.9986,149.2674,269.639,90.4397,4.5964e-06,3.4e-06,0.0,0 STARLINK-5455,1 55668U 23021AS  23177.04922363  .00000340  00000-0  45964-5 0  9997,2 55668  69.9986 149.2674 0003572 269.6390  90.4397 15.69919566 20678,6737.264,91.724,361.536,356.723,0.0
55668.0,STARLINK-5455,PAYLOAD,2023-06-26 08:49:38,15.69926634,0.0003551,69.9984,148.3709,265.7111,94.3679,1.6067e-05,1.72e-05,0.0,0 STARLINK-5455,1 55668U 23021AS  23177.36780252  .00001720  00000-0  16067-4 0  9995,2 55668  69.9984 148.3709 0003551 265.7111  94.3679 15.69926634 20726,6737.244,91.724,361.501,356.717,0.0
55668.0,STARLINK-5455,PAYLOAD,2023-06-27 15:24:40,15.69923312,0.0003397,69.999,144.7885,267.1329,92.9478,1.0665e-05,1.07e-05,0.0,0 STARLINK-5455,1 55668U 23021AS  23178.64214075  .00001070  00000-0  10665-4 0  9998,2 55668  69.9990 144.7885 0003397 267.1329  92.9478 15.69923312 20926,6737.253,91.724,361.407,356.83,0.0
55668.0,STARLINK-5455,PAYLOAD,2023-06-28 00:35:12,15.69909782,0.0003371,69.9981,143.7135,265.4676,94.6134,8.3484e-05,9.831e-05,0.0,0 STARLINK-5455,1 55668U 23021AS  23179.02444880  .00009831  00000-0  83484-4 0  9992,2 55668  69.9981 143.7135 0003371 265.4676  94.6134 15.69909782 20980,6737.292,91.725,361.428,356.886,0.0
55668.0,STARLINK-5455,PAYLOAD,2023-06-28 08:13:57,15.69925655,0.00034,69.9989,142.8186,265.2375,94.8433,1.947e-05,2.129e-05,0.0,0 STARLINK-5455,1 55668U 23021AS  23179.34302450  .00002129  00000-0  19470-4 0  9990,2 55668  69.9989 142.8186 0003400 265.2375  94.8433 15.69925655 21039,6737.247,91.724,361.402,356.821,0.0
55668.0,STARLINK-5455,PAYLOAD,2023-06-29 01:03:14,15.69917628,0.0003455,69.9985,140.8473,264.0073,96.0729,3.7868e-05,4.342e-05,0.0,0 STARLINK-5455,1 55668U 23021AS  23180.04391248  .00004342  00000-0  37868-4 0  9992,2 55668  69.9985 140.8473 0003455 264.0073  96.0729 15.69917628 21149,6737.27,91.725,361.462,356.807,0.0
55668.0,STARLINK-5455,PAYLOAD,2023-06-29 07:10:14,15.69910517,0.0003403,69.9994,140.1322,257.0284,103.0532,-2.7448e-05,-3.51e-05,0.0,0 STARLINK-5455,1 55668U 23021AS  23180.29878100 -.00003510  00000-0 -27448-4 0  9997,2 55668  69.9994 140.1322 0003403 257.0284 103.0532 15.69910517 21189,6737.29,91.725,361.448,356.862,0.0
55668.0,STARLINK-5455,PAYLOAD,2023-07-01 06:34:33,15.69906844,0.0003045,69.9996,134.5786,258.746,101.3394,-2.0179e-05,-2.636e-05,0.0,0 STARLINK-5455,1 55668U 23021AS  23182.27400252 -.00002636  00000-0 -20179-4 0  9998,2 55668  69.9996 134.5786 0003045 258.7460 101.3394 15.69906844 21497,6737.301,91.725,361.217,357.114,0.0
55668.0,STARLINK-5455,PAYLOAD,2023-07-01 23:23:48,15.69934686,0.000298,69.9992,132.6074,247.0013,113.0869,1.6766e-05,1.805e-05,0.0,0 STARLINK-5455,1 55668U 23021AS  23182.97487043  .00001805  00000-0  16766-4 0  9990,2 55668  69.9992 132.6074 0002980 247.0013 113.0869 15.69934686 21609,6737.221,91.724,361.094,357.078,0.0
55668.0,STARLINK-5455,PAYLOAD,2023-07-02 05:30:49,15.69928251,0.0002836,70.0001,131.8907,244.7358,115.3544,7.9761e-06,7.47e-06,0.0,0 STARLINK-5455,1 55668U 23021AS  23183.22974299  .00000747  00000-0  79761-5 0  9992,2 55668  70.0001 131.8907 0002836 244.7358 115.3544 15.69928251 21645,6737.239,91.724,361.015,357.194,0.0
55668.0,STARLINK-5455,PAYLOAD,2023-07-03 05:58:53,15.69907494,0.0003073,69.9979,129.0261,261.3236,98.7612,-2.0289e-06,-4.56e-06,0.0,0 STARLINK-5455,1 55668U 23021AS  23184.24922547 -.00000456  00000-0 -20289-5 0  9994,2 55668  69.9979 129.0261 0003073 261.3236  98.7612 15.69907494 21806,6737.299,91.725,361.234,357.093,0.0
55668.0,STARLINK-5455,PAYLOAD,2023-07-03 13:37:38,15.6991618,0.0003365,69.996,128.1278,264.1414,95.9398,8.0307e-06,7.53e-06,0.0,0 STARLINK-5455,1 55668U 23021AS  23184.56780286  .00000753  00000-0  80307-5 0  9996,2 55668  69.9960 128.1278 0003365 264.1414  95.9398 15.69916180 21854,6737.274,91.725,361.406,356.872,0.0
55668.0,STARLINK-5455,PAYLOAD,2023-07-03 22:48:08,15.69933003,0.0003444,69.9967,127.051,267.65,92.4302,-1.2387e-06,-3.62e-06,0.0,0 STARLINK-5455,1 55668U 23021AS  23184.95009503 -.00000362  00000-0 -12387-5 0  9996,2 55668  69.9967 127.0510 0003444 267.6500  92.4302 15.69933003 21917,6737.226,91.724,361.411,356.77,0.0
55668.0,STARLINK-5455,PAYLOAD,2023-07-04 23:16:10,15.69916279,0.0003626,69.9975,124.187,268.2998,91.7782,2.8109e-06,1.25e-06,0.0,0 STARLINK-5455,1 55668U 23021AS  23185.96957078  .00000125  00000-0  28109-5 0  9991,2 55668  69.9975 124.1870 0003626 268.2998  91.7782 15.69916279 22071,6737.274,91.725,361.581,356.696,0.0
55668.0,STARLINK-5455,PAYLOAD,2023-07-05 05:23:11,15.69924309,0.0003263,69.9985,123.4717,256.8027,103.2805,-2.5912e-07,-2.44e-06,0.0,0 STARLINK-5455,1 55668U 23021AS  23186.22443351 -.00000244  00000-0 -25912-6 0  9999,2 55668  69.9985 123.4717 0003263 256.8027 103.2805 15.69924309 22110,6737.251,91.724,361.314,356.917,0.0
55668.0,STARLINK-5455,PAYLOAD,2023-07-06 05:51:12,15.69931648,0.0003323,69.9975,120.604,266.3378,93.7438,7.0355e-06,6.33e-06,0.0,0 STARLINK-5455,1 55668U 23021AS  23187.24389754  .00000633  00000-0  70355-5 0  9998,2 55668  69.9975 120.6040 0003323 266.3378  93.7438 15.69931648 22275,6737.23,91.724,361.333,356.856,0.0
55668.0,STARLINK-5455,PAYLOAD,2023-07-07 01:43:59,15.69922809,0.0003772,69.9979,118.2764,262.8669,97.2098,1.9579e-05,2.142e-05,0.0,0 STARLINK-5455,1 55668U 23021AS  23188.07221736  .00002142  00000-0  19579-4 0  9992,2 55668  69.9979 118.2764 0003772 262.8669  97.2098 15.69922809 22402,6737.255,91.724,361.661,356.579,0.0
55668.0,STARLINK-5455,PAYLOAD,2023-07-07 21:36:46,15.69920185,0.0003422,69.9986,115.9476,261.3099,98.7709,8.1955e-06,7.73e-06,0.0,0 STARLINK-5455,1 55668U 23021AS  23188.90053895  .00000773  00000-0  81955-5 0  9999,2 55668  69.9986 115.9476 0003422 261.3099  98.7709 15.69920185 22531,6737.262,91.724,361.433,356.822,0.0
55668.0,STARLINK-5455,PAYLOAD,2023-07-08 05:15:31,15.69934568,0.0003172,69.998,115.0526,255.5061,104.5783,1.2542e-05,1.296e-05,0.0,0 STARLINK-5455,1 55668U 23021AS  23189.21911214  .00001296  00000-0  12542-4 0  9998,2 55668  69.9980 115.0526 0003172 255.5061 104.5783 15.69934568 22581,6737.221,91.724,361.223,356.949,0.0
55668.0,STARLINK-5455,PAYLOAD,2023-07-08 19:01:18,15.69917299,0.0003085,69.9992,113.4403,262.5979,97.4867,8.5498e-06,8.15e-06,0.0,0 STARLINK-5455,1 55668U 23021AS  23189.79257530  .00000815  00000-0  85498-5 0  9992,2 55668  69.9992 113.4403 0003085 262.5979  97.4867 15.69917299 22674,6737.271,91.725,361.214,357.057,0.0
55668.0,STARLINK-5455,PAYLOAD,2023-07-09 04:11:48,15.69928387,0.0003404,69.9987,112.3645,261.7392,98.3418,2.3561e-05,2.622e-05,0.0,0 STARLINK-5455,1 55668U 23021AS  23190.17486838  .00002622  00000-0  23561-4 0  9991,2 55668  69.9987 112.3645 0003404 261.7392  98.3418 15.69928387 22738,6737.239,91.724,361.397,356.811,0.0
55668.0,STARLINK-5455,PAYLOAD,2023-07-09 11:50:34,15.6992199,0.0003397,69.9989,111.4691,263.9476,96.1332,8.6283e-06,8.25e-06,0.0,0 STARLINK-5455,1 55668U 23021AS  23190.49345501  .00000825  00000-0  86283-5 0  9991,2 55668  69.9989 111.4691 0003397 263.9476  96.1332 15.69921990 22788,6737.257,91.724,361.411,356.834,0.0
55668.0,STARLINK-5455,PAYLOAD,2023-07-10 04:39:50,15.69932488,0.0003322,70.0002,109.4986,266.0659,94.0157,2.5982e-05,2.914e-05,0.0,0 STARLINK-5455,1 55668U 23021AS  23191.19433322  .00002914  00000-0  25982-4 0  9997,2 55668  70.0002 109.4986 0003322 266.0659  94.0157 15.69932488 22894,6737.227,91.724,361.33,356.854,0.0
55668.0,STARLINK-5455,PAYLOAD,2023-07-10 12:18:36,15.69915509,0.0003711,69.9989,108.6025,266.3578,93.7194,2.3544e-05,2.618e-05,0.0,0 STARLINK-5455,1 55668U 23021AS  23191.51292519  .00002618  00000-0  23544-4 0  9997,2 55668  69.9989 108.6025 0003711 266.3578  93.7194 15.69915509 22943,6737.276,91.725,361.641,356.641,0.0
55668.0,STARLINK-5455,PAYLOAD,2023-07-11 03:36:07,15.69925482,0.0003475,69.9992,106.8117,268.8505,91.2293,3.02e-06,1.5e-06,0.0,0 STARLINK-5455,1 55668U 23021AS  23192.15008769  .00000150  00000-0  30200-5 0  9997,2 55668  69.9992 106.8117 0003475 268.8505  91.2293 15.69925482 23049,6737.247,91.724,361.453,356.771,0.0
55668.0,STARLINK-5455,PAYLOAD,2023-07-12 04:04:09,15.69931173,0.0003627,69.9993,103.9447,266.84,93.2381,1.3827e-05,1.451e-05,0.0,0 STARLINK-5455,1 55668U 23021AS  23193.16955208  .00001451  00000-0  13827-4 0  9998,2 55668  69.9993 103.9447 0003627 266.8400  93.2381 15.69931173 23207,6737.231,91.724,361.54,356.652,0.0
55668.0,STARLINK-5455,PAYLOAD,2023-07-12 11:42:55,15.69925631,0.0003803,69.9992,103.0491,268.1021,91.9739,2.5392e-05,2.842e-05,0.0,0 STARLINK-5455,1 55668U 23021AS  23193.48813904  .00002842  00000-0  25392-4 0  9994,2 55668  69.9992 103.0491 0003803 268.1021  91.9739 15.69925631 23255,6737.247,91.724,361.674,356.55,0.0
55668.0,STARLINK-5455,PAYLOAD,2023-07-13 04:32:11,15.69924875,0.0003424,69.9993,101.0791,263.1787,96.9019,1.8795e-05,2.048e-05,0.0,0 STARLINK-5455,1 55668U 23021AS  23194.18902456  .00002048  00000-0  18795-4 0  9990,2 55668  69.9993 101.0791 0003424 263.1787  96.9019 15.69924875 23367,6737.249,91.724,361.421,356.807,0.0
55668.0,STARLINK-5455,PAYLOAD,2023-07-14 03:28:28,15.69922577,0.0003522,69.9989,98.3903,269.7676,90.3116,1.0265e-05,1.022e-05,0.0,0 STARLINK-5455,1 55668U 23021AS  23195.14477549  .00001022  00000-0  10265-4 0  9992,2 55668  69.9989  98.3903 0003522 269.7676  90.3116 15.69922577 23513,6737.256,91.724,361.493,356.748,0.0
